{
  "type": "FeatureCollection",
  "features": [
    {
      "type": "Feature",
      "properties": {
        "norad_id": 55973,
        "name": "TIANMU-1 03",
        "group": "weather",
        "lat": 8.192020077869497,
        "lon": 161.40670681732294,
        "alt_km": 441.78068282005916,
        "timestamp": "2025-12-25T11:37:44.065162+00:00",
        "meta_object_name": "TIANMU-1 03",
        "meta_object_id": "2023-039A",
        "meta_epoch": "2025-12-25T03:48:08.752896",
        "meta_mean_motion": 15.412828,
        "meta_eccentricity": 0.0003787,
        "meta_inclination": 97.5115,
        "meta_ra_of_asc_node": 162.1598,
        "meta_arg_of_pericenter": 24.834,
        "meta_mean_anomaly": 335.3087,
        "meta_ephemeris_type": 0,
        "meta_classification_type": "U",
        "meta_norad_cat_id": 55973,
        "meta_element_set_no": 999,
        "meta_rev_at_epoch": 15397,
        "meta_bstar": 0.00040762,
        "meta_mean_motion_dot": 0.00016898,
        "meta_mean_motion_ddot": 0,
        "tle_line1": "1 55973U 23039A   25359.15843464  .00016898  00000+0  40762-3 0  9998",
        "tle_line2": "2 55973  97.5115 162.1598 0003787  24.8340 335.3087 15.41282800153972"
      },
      "geometry": {
        "type": "Point",
        "coordinates": [
          161.40670681732294,
          8.192020077869497
        ]
      }
    },
    {
      "type": "Feature",
      "properties": {
        "norad_id": 55974,
        "name": "TIANMU-1 04",
        "group": "weather",
        "lat": 41.482799381236106,
        "lon": -11.62531619922728,
        "alt_km": 439.57251832623206,
        "timestamp": "2025-12-25T11:37:44.065173+00:00",
        "meta_object_name": "TIANMU-1 04",
        "meta_object_id": "2023-039B",
        "meta_epoch": "2025-12-25T04:48:04.925664",
        "meta_mean_motion": 15.41628018,
        "meta_eccentricity": 0.0004385,
        "meta_inclination": 97.5046,
        "meta_ra_of_asc_node": 161.3886,
        "meta_arg_of_pericenter": 17.8099,
        "meta_mean_anomaly": 342.3301,
        "meta_ephemeris_type": 0,
        "meta_classification_type": "U",
        "meta_norad_cat_id": 55974,
        "meta_element_set_no": 999,
        "meta_rev_at_epoch": 15398,
        "meta_bstar": 0.00041265,
        "meta_mean_motion_dot": 0.00017307,
        "meta_mean_motion_ddot": 0,
        "tle_line1": "1 55974U 23039B   25359.20005701  .00017307  00000+0  41265-3 0  9994",
        "tle_line2": "2 55974  97.5046 161.3886 0004385  17.8099 342.3301 15.41628018153988"
      },
      "geometry": {
        "type": "Point",
        "coordinates": [
          -11.62531619922728,
          41.482799381236106
        ]
      }
    },
    {
      "type": "Feature",
      "properties": {
        "norad_id": 55975,
        "name": "TIANMU-1 05",
        "group": "weather",
        "lat": 27.296422641627494,
        "lon": -13.92266033452864,
        "alt_km": 442.31871434796903,
        "timestamp": "2025-12-25T11:37:44.065183+00:00",
        "meta_object_name": "TIANMU-1 05",
        "meta_object_id": "2023-039C",
        "meta_epoch": "2025-12-25T04:44:15.383328",
        "meta_mean_motion": 15.41241042,
        "meta_eccentricity": 0.0003926,
        "meta_inclination": 97.5093,
        "meta_ra_of_asc_node": 161.8788,
        "meta_arg_of_pericenter": 43.8744,
        "meta_mean_anomaly": 316.2813,
        "meta_ephemeris_type": 0,
        "meta_classification_type": "U",
        "meta_norad_cat_id": 55975,
        "meta_element_set_no": 999,
        "meta_rev_at_epoch": 15396,
        "meta_bstar": 0.00041174,
        "meta_mean_motion_dot": 0.00017046,
        "meta_mean_motion_ddot": 0,
        "tle_line1": "1 55975U 23039C   25359.19740027  .00017046  00000+0  41174-3 0  9999",
        "tle_line2": "2 55975  97.5093 161.8788 0003926  43.8744 316.2813 15.41241042153967"
      },
      "geometry": {
        "type": "Point",
        "coordinates": [
          -13.92266033452864,
          27.296422641627494
        ]
      }
    },
    {
      "type": "Feature",
      "properties": {
        "norad_id": 55976,
        "name": "TIANMU-1 06",
        "group": "weather",
        "lat": 51.001390913449534,
        "lon": -7.9734830193901045,
        "alt_km": 436.5597859787067,
        "timestamp": "2025-12-25T11:37:44.065194+00:00",
        "meta_object_name": "TIANMU-1 06",
        "meta_object_id": "2023-039D",
        "meta_epoch": "2025-12-25T04:50:36.841920",
        "meta_mean_motion": 15.41679122,
        "meta_eccentricity": 0.0004195,
        "meta_inclination": 97.5104,
        "meta_ra_of_asc_node": 162.3587,
        "meta_arg_of_pericenter": 37.7363,
        "meta_mean_anomaly": 322.4177,
        "meta_ephemeris_type": 0,
        "meta_classification_type": "U",
        "meta_norad_cat_id": 55976,
        "meta_element_set_no": 999,
        "meta_rev_at_epoch": 15398,
        "meta_bstar": 0.0004101,
        "meta_mean_motion_dot": 0.00017228,
        "meta_mean_motion_ddot": 0,
        "tle_line1": "1 55976U 23039D   25359.20181530  .00017228  00000+0  41010-3 0  9991",
        "tle_line2": "2 55976  97.5104 162.3587 0004195  37.7363 322.4177 15.41679122153980"
      },
      "geometry": {
        "type": "Point",
        "coordinates": [
          -7.9734830193901045,
          51.001390913449534
        ]
      }
    },
    {
      "type": "Feature",
      "properties": {
        "norad_id": 56232,
        "name": "FENGYUN 3G",
        "group": "weather",
        "lat": 22.05886852718437,
        "lon": -38.22661170907382,
        "alt_km": 409.99848044138434,
        "timestamp": "2025-12-25T11:37:44.065207+00:00",
        "meta_object_name": "FENGYUN 3G",
        "meta_object_id": "2023-055A",
        "meta_epoch": "2025-12-24T22:37:17.658336",
        "meta_mean_motion": 15.52036957,
        "meta_eccentricity": 0.0003926,
        "meta_inclination": 49.9924,
        "meta_ra_of_asc_node": 164.4637,
        "meta_arg_of_pericenter": 287.7097,
        "meta_mean_anomaly": 72.3441,
        "meta_ephemeris_type": 0,
        "meta_classification_type": "U",
        "meta_norad_cat_id": 56232,
        "meta_element_set_no": 999,
        "meta_rev_at_epoch": 15292,
        "meta_bstar": 0.00050839,
        "meta_mean_motion_dot": 0.0003091,
        "meta_mean_motion_ddot": 0,
        "tle_line1": "1 56232U 23055A   25358.94256549  .00030910  00000+0  50839-3 0  9990",
        "tle_line2": "2 56232  49.9924 164.4637 0003926 287.7097  72.3441 15.52036957152921"
      },
      "geometry": {
        "type": "Point",
        "coordinates": [
          -38.22661170907382,
          22.05886852718437
        ]
      }
    },
    {
      "type": "Feature",
      "properties": {
        "norad_id": 57166,
        "name": "METEOR-M2 3",
        "group": "weather",
        "lat": 26.005833755391297,
        "lon": 48.54819273813114,
        "alt_km": 809.5611510579793,
        "timestamp": "2025-12-25T11:37:44.065220+00:00",
        "meta_object_name": "METEOR-M2 3",
        "meta_object_id": "2023-091A",
        "meta_epoch": "2025-12-25T04:45:37.647360",
        "meta_mean_motion": 14.24027549,
        "meta_eccentricity": 0.0003246,
        "meta_inclination": 98.6361,
        "meta_ra_of_asc_node": 52.5191,
        "meta_arg_of_pericenter": 329.831,
        "meta_mean_anomaly": 30.2682,
        "meta_ephemeris_type": 0,
        "meta_classification_type": "U",
        "meta_norad_cat_id": 57166,
        "meta_element_set_no": 999,
        "meta_rev_at_epoch": 12975,
        "meta_bstar": 2.129e-05,
        "meta_mean_motion_dot": 5e-08,
        "meta_mean_motion_ddot": 0,
        "tle_line1": "1 57166U 23091A   25359.19835240  .00000005  00000+0  21290-4 0  9998",
        "tle_line2": "2 57166  98.6361  52.5191 0003246 329.8310  30.2682 14.24027549129757"
      },
      "geometry": {
        "type": "Point",
        "coordinates": [
          48.54819273813114,
          26.005833755391297
        ]
      }
    },
    {
      "type": "Feature",
      "properties": {
        "norad_id": 57399,
        "name": "TIANMU-1 07",
        "group": "weather",
        "lat": -56.41864155452791,
        "lon": 60.163340469898365,
        "alt_km": 489.0708324329553,
        "timestamp": "2025-12-25T11:37:44.065230+00:00",
        "meta_object_name": "TIANMU-1 07",
        "meta_object_id": "2023-101A",
        "meta_epoch": "2025-12-25T04:01:16.497984",
        "meta_mean_motion": 15.28245339,
        "meta_eccentricity": 0.0005008,
        "meta_inclination": 97.2856,
        "meta_ra_of_asc_node": 48.7431,
        "meta_arg_of_pericenter": 49.5179,
        "meta_mean_anomaly": 310.6496,
        "meta_ephemeris_type": 0,
        "meta_classification_type": "U",
        "meta_norad_cat_id": 57399,
        "meta_element_set_no": 999,
        "meta_rev_at_epoch": 13505,
        "meta_bstar": 0.00029923,
        "meta_mean_motion_dot": 8.166e-05,
        "meta_mean_motion_ddot": 0,
        "tle_line1": "1 57399U 23101A   25359.16755206  .00008166  00000+0  29923-3 0  9994",
        "tle_line2": "2 57399  97.2856  48.7431 0005008  49.5179 310.6496 15.28245339135052"
      },
      "geometry": {
        "type": "Point",
        "coordinates": [
          60.163340469898365,
          -56.41864155452791
        ]
      }
    }
  ]
}